SL-3 R/B                
1 13403U 82079B   25325.13690503  .00005699  00000+0  23729-3 0  9995
2 13403  81.1456 321.1215 0025893 169.4080 190.7704 15.23253219361166
SL-14 R/B               
1 13553U 82092B   25324.72895687  .00000678  00000+0  73678-4 0  9991
2 13553  82.5687 243.2942 0019113 305.7801  73.4475 14.86521560312745
SL-3 R/B                
1 13819U 83010B   25324.91839646  .00012754  00000+0  29009-3 0  9997
2 13819  81.1019 135.2380 0018152  65.9678 294.3462 15.42672692341152
SL-3 R/B                
1 14208U 83075B   25325.09101714  .00010588  00000+0  30684-3 0  9993
2 14208  97.6096 320.8584 0020916 256.8937 102.9971 15.35534102313478
COSMOS 1536             
1 14699U 84013A   25324.45801117  .00006822  00000+0  29522-3 0  9998
2 14699  82.5474 216.2525 0013714 313.2767  46.7324 15.22176708255994
SL-14 R/B               
1 14820U 84027B   25325.14049157  .00000519  00000+0  56684-4 0  9991
2 14820  82.5416 346.8136 0017326 337.8458  22.2007 14.85841417231519
SL-8 R/B                
1 15483U 85006B   25324.85211436  .00000268  00000+0  97627-4 0  9996
2 15483  74.0445 101.4024 0017784  40.1952 121.4058 14.37701236138385
SL-12 R/B(2)            
1 15772U 85042D   25325.15129999  .00000082  00000+0  58485-4 0  9996
2 15772  71.1077 317.0288 0037496 293.0685 138.6049 14.21942057 98966
SL-14 R/B               
1 15945U 85069B   25325.02354082  .00000630  00000+0  68647-4 0  9996
2 15945  82.5247 127.1190 0018568 188.0273 172.0650 14.86286085156698
SL-16 R/B               
1 16182U 85097B   25325.17185056  .00000286  00000+0  16734-3 0  9996
2 16182  71.0043   9.0106 0005571  50.1221  11.4536 14.16580120 71860
SL-14 R/B               
1 16496U 86006B   25325.16158088  .00000736  00000+0  76146-4 0  9993
2 16496  82.5279   1.8552 0075202 272.5190  86.7419 14.86628723133081
COSMOS 1743             
1 16719U 86034A   25325.11100789  .00025261  00000+0  43794-3 0  9994
2 16719  82.5359 187.0293 0006021 347.7726  12.3378 15.50720551163389
