CCSDS_OMM_VERS = 2.0
CREATION_DATE  = 
ORIGINATOR     = 

OBJECT_NAME    = SL-3 R/B
OBJECT_ID      = 1982-079B
CENTER_NAME    = EARTH
REF_FRAME      = TEME
TIME_SYSTEM    = UTC
MEAN_ELEMENT_THEORY = SGP/SGP4

EPOCH          = 2025-11-21T03:17:08.594592
MEAN_MOTION    = 15.23253219
ECCENTRICITY   = .0025893
INCLINATION    = 81.1456
RA_OF_ASC_NODE = 321.1215
ARG_OF_PERICENTER = 169.4080
MEAN_ANOMALY   = 190.7704

EPHEMERIS_TYPE = 0
CLASSIFICATION_TYPE = U
NORAD_CAT_ID   = 13403
ELEMENT_SET_NO = 999
REV_AT_EPOCH   = 36116
BSTAR          = .23729E-3
MEAN_MOTION_DOT = .5699E-4
MEAN_MOTION_DDOT = 0

CCSDS_OMM_VERS = 2.0
CREATION_DATE  = 
ORIGINATOR     = 

OBJECT_NAME    = SL-14 R/B
OBJECT_ID      = 1982-092B
CENTER_NAME    = EARTH
REF_FRAME      = TEME
TIME_SYSTEM    = UTC
MEAN_ELEMENT_THEORY = SGP/SGP4

EPOCH          = 2025-11-20T17:29:41.873568
MEAN_MOTION    = 14.86521560
ECCENTRICITY   = .0019113
INCLINATION    = 82.5687
RA_OF_ASC_NODE = 243.2942
ARG_OF_PERICENTER = 305.7801
MEAN_ANOMALY   = 73.4475

EPHEMERIS_TYPE = 0
CLASSIFICATION_TYPE = U
NORAD_CAT_ID   = 13553
ELEMENT_SET_NO = 999
REV_AT_EPOCH   = 31274
BSTAR          = .73677814E-4
MEAN_MOTION_DOT = .678E-5
MEAN_MOTION_DDOT = 0

CCSDS_OMM_VERS = 2.0
CREATION_DATE  = 
ORIGINATOR     = 

OBJECT_NAME    = SL-3 R/B
OBJECT_ID      = 1983-010B
CENTER_NAME    = EARTH
REF_FRAME      = TEME
TIME_SYSTEM    = UTC
MEAN_ELEMENT_THEORY = SGP/SGP4

EPOCH          = 2025-11-20T22:02:29.454144
MEAN_MOTION    = 15.42672692
ECCENTRICITY   = .0018152
INCLINATION    = 81.1019
RA_OF_ASC_NODE = 135.2380
ARG_OF_PERICENTER = 65.9678
MEAN_ANOMALY   = 294.3462

EPHEMERIS_TYPE = 0
CLASSIFICATION_TYPE = U
NORAD_CAT_ID   = 13819
ELEMENT_SET_NO = 999
REV_AT_EPOCH   = 34115
BSTAR          = .29009E-3
MEAN_MOTION_DOT = .12754E-3
MEAN_MOTION_DDOT = 0

CCSDS_OMM_VERS = 2.0
CREATION_DATE  = 
ORIGINATOR     = 

OBJECT_NAME    = SL-3 R/B
OBJECT_ID      = 1983-075B
CENTER_NAME    = EARTH
REF_FRAME      = TEME
TIME_SYSTEM    = UTC
MEAN_ELEMENT_THEORY = SGP/SGP4

EPOCH          = 2025-11-21T02:11:03.880896
MEAN_MOTION    = 15.35534102
ECCENTRICITY   = .0020916
INCLINATION    = 97.6096
RA_OF_ASC_NODE = 320.8584
ARG_OF_PERICENTER = 256.8937
MEAN_ANOMALY   = 102.9971

EPHEMERIS_TYPE = 0
CLASSIFICATION_TYPE = U
NORAD_CAT_ID   = 14208
ELEMENT_SET_NO = 999
REV_AT_EPOCH   = 31347
BSTAR          = .30684E-3
MEAN_MOTION_DOT = .10588E-3
MEAN_MOTION_DDOT = 0

CCSDS_OMM_VERS = 2.0
CREATION_DATE  = 
ORIGINATOR     = 

OBJECT_NAME    = COSMOS 1536
OBJECT_ID      = 1984-013A
CENTER_NAME    = EARTH
REF_FRAME      = TEME
TIME_SYSTEM    = UTC
MEAN_ELEMENT_THEORY = SGP/SGP4

EPOCH          = 2025-11-20T10:59:32.165088
MEAN_MOTION    = 15.22176708
ECCENTRICITY   = .00137146
INCLINATION    = 82.5474
RA_OF_ASC_NODE = 216.2525
ARG_OF_PERICENTER = 313.2767
MEAN_ANOMALY   = 46.7324

EPHEMERIS_TYPE = 0
CLASSIFICATION_TYPE = U
NORAD_CAT_ID   = 14699
ELEMENT_SET_NO = 999
REV_AT_EPOCH   = 25599
BSTAR          = .2952201E-3
MEAN_MOTION_DOT = .6822E-4
MEAN_MOTION_DDOT = 0

CCSDS_OMM_VERS = 2.0
CREATION_DATE  = 
ORIGINATOR     = 

OBJECT_NAME    = SL-14 R/B
OBJECT_ID      = 1984-027B
CENTER_NAME    = EARTH
REF_FRAME      = TEME
TIME_SYSTEM    = UTC
MEAN_ELEMENT_THEORY = SGP/SGP4

EPOCH          = 2025-11-21T03:22:18.471648
MEAN_MOTION    = 14.85841417
ECCENTRICITY   = .0017326
INCLINATION    = 82.5416
RA_OF_ASC_NODE = 346.8136
ARG_OF_PERICENTER = 337.8458
MEAN_ANOMALY   = 22.2007

EPHEMERIS_TYPE = 0
CLASSIFICATION_TYPE = U
NORAD_CAT_ID   = 14820
ELEMENT_SET_NO = 999
REV_AT_EPOCH   = 23151
BSTAR          = .56684E-4
MEAN_MOTION_DOT = .519E-5
MEAN_MOTION_DDOT = 0

CCSDS_OMM_VERS = 2.0
CREATION_DATE  = 
ORIGINATOR     = 

OBJECT_NAME    = SL-8 R/B
OBJECT_ID      = 1985-006B
CENTER_NAME    = EARTH
REF_FRAME      = TEME
TIME_SYSTEM    = UTC
MEAN_ELEMENT_THEORY = SGP/SGP4

EPOCH          = 2025-11-20T20:27:02.680704
MEAN_MOTION    = 14.37701236
ECCENTRICITY   = .0017784
INCLINATION    = 74.0445
RA_OF_ASC_NODE = 101.4024
ARG_OF_PERICENTER = 40.1952
MEAN_ANOMALY   = 121.4058

EPHEMERIS_TYPE = 0
CLASSIFICATION_TYPE = U
NORAD_CAT_ID   = 15483
ELEMENT_SET_NO = 999
REV_AT_EPOCH   = 13838
BSTAR          = .97627E-4
MEAN_MOTION_DOT = .268E-5
MEAN_MOTION_DDOT = 0

CCSDS_OMM_VERS = 2.0
CREATION_DATE  = 
ORIGINATOR     = 

OBJECT_NAME    = SL-12 R/B(2)
OBJECT_ID      = 1985-042D
CENTER_NAME    = EARTH
REF_FRAME      = TEME
TIME_SYSTEM    = UTC
MEAN_ELEMENT_THEORY = SGP/SGP4

EPOCH          = 2025-11-21T03:37:52.319136
MEAN_MOTION    = 14.21942057
ECCENTRICITY   = .0037496
INCLINATION    = 71.1077
RA_OF_ASC_NODE = 317.0288
ARG_OF_PERICENTER = 293.0685
MEAN_ANOMALY   = 138.6049

EPHEMERIS_TYPE = 0
CLASSIFICATION_TYPE = U
NORAD_CAT_ID   = 15772
ELEMENT_SET_NO = 999
REV_AT_EPOCH   = 9896
BSTAR          = .58485E-4
MEAN_MOTION_DOT = .82E-6
MEAN_MOTION_DDOT = 0

CCSDS_OMM_VERS = 2.0
CREATION_DATE  = 
ORIGINATOR     = 

OBJECT_NAME    = SL-14 R/B
OBJECT_ID      = 1985-069B
CENTER_NAME    = EARTH
REF_FRAME      = TEME
TIME_SYSTEM    = UTC
MEAN_ELEMENT_THEORY = SGP/SGP4

EPOCH          = 2025-11-21T00:33:53.926848
MEAN_MOTION    = 14.86286085
ECCENTRICITY   = .0018568
INCLINATION    = 82.5247
RA_OF_ASC_NODE = 127.1190
ARG_OF_PERICENTER = 188.0273
MEAN_ANOMALY   = 172.0650

EPHEMERIS_TYPE = 0
CLASSIFICATION_TYPE = U
NORAD_CAT_ID   = 15945
ELEMENT_SET_NO = 999
REV_AT_EPOCH   = 15669
BSTAR          = .68647E-4
MEAN_MOTION_DOT = .63E-5
MEAN_MOTION_DDOT = 0

CCSDS_OMM_VERS = 2.0
CREATION_DATE  = 
ORIGINATOR     = 

OBJECT_NAME    = SL-16 R/B
OBJECT_ID      = 1985-097B
CENTER_NAME    = EARTH
REF_FRAME      = TEME
TIME_SYSTEM    = UTC
MEAN_ELEMENT_THEORY = SGP/SGP4

EPOCH          = 2025-11-21T04:07:27.888384
MEAN_MOTION    = 14.16580120
ECCENTRICITY   = .0005571
INCLINATION    = 71.0043
RA_OF_ASC_NODE = 9.0106
ARG_OF_PERICENTER = 50.1221
MEAN_ANOMALY   = 11.4536

EPHEMERIS_TYPE = 0
CLASSIFICATION_TYPE = U
NORAD_CAT_ID   = 16182
ELEMENT_SET_NO = 999
REV_AT_EPOCH   = 7186
BSTAR          = .16734E-3
MEAN_MOTION_DOT = .286E-5
MEAN_MOTION_DDOT = 0

CCSDS_OMM_VERS = 2.0
CREATION_DATE  = 
ORIGINATOR     = 

OBJECT_NAME    = SL-14 R/B
OBJECT_ID      = 1986-006B
CENTER_NAME    = EARTH
REF_FRAME      = TEME
TIME_SYSTEM    = UTC
MEAN_ELEMENT_THEORY = SGP/SGP4

EPOCH          = 2025-11-21T03:52:40.588032
MEAN_MOTION    = 14.86628723
ECCENTRICITY   = .0075202
INCLINATION    = 82.5279
RA_OF_ASC_NODE = 1.8552
ARG_OF_PERICENTER = 272.5190
MEAN_ANOMALY   = 86.7419

EPHEMERIS_TYPE = 0
CLASSIFICATION_TYPE = U
NORAD_CAT_ID   = 16496
ELEMENT_SET_NO = 999
REV_AT_EPOCH   = 13308
BSTAR          = .76146E-4
MEAN_MOTION_DOT = .736E-5
MEAN_MOTION_DDOT = 0

CCSDS_OMM_VERS = 2.0
CREATION_DATE  = 
ORIGINATOR     = 

OBJECT_NAME    = COSMOS 1743
OBJECT_ID      = 1986-034A
CENTER_NAME    = EARTH
REF_FRAME      = TEME
TIME_SYSTEM    = UTC
MEAN_ELEMENT_THEORY = SGP/SGP4

EPOCH          = 2025-11-21T02:39:51.081696
MEAN_MOTION    = 15.50720551
ECCENTRICITY   = .0006021
INCLINATION    = 82.5359
RA_OF_ASC_NODE = 187.0293
ARG_OF_PERICENTER = 347.7726
MEAN_ANOMALY   = 12.3378

EPHEMERIS_TYPE = 0
CLASSIFICATION_TYPE = U
NORAD_CAT_ID   = 16719
ELEMENT_SET_NO = 999
REV_AT_EPOCH   = 16338
BSTAR          = .43794E-3
MEAN_MOTION_DOT = .25261E-3
MEAN_MOTION_DDOT = 0

